[{"OBJECT_NAME":"KUIPER-00203","OBJECT_ID":"2026-030K","EPOCH":"2026-03-04T20:00:03.000384","MEAN_MOTION":15.24952797,"ECCENTRICITY":0.0012117,"INCLINATION":51.8816,"RA_OF_ASC_NODE":242.9805,"ARG_OF_PERICENTER":49.4214,"MEAN_ANOMALY":186.0828,"EPHEMERIS_TYPE":0,"CLASSIFICATION_TYPE":"U","NORAD_CAT_ID":67773,"ELEMENT_SET_NO":999,"REV_AT_EPOCH":290,"BSTAR":-0.053485,"MEAN_MOTION_DOT":-0.01243579,"MEAN_MOTION_DDOT":0},{"OBJECT_NAME":"KUIPER-00205","OBJECT_ID":"2026-030L","EPOCH":"2026-03-04T17:50:46.390272","MEAN_MOTION":15.36158693,"ECCENTRICITY":0.0002827,"INCLINATION":51.8812,"RA_OF_ASC_NODE":242.9207,"ARG_OF_PERICENTER":6.3042,"MEAN_ANOMALY":353.7979,"EPHEMERIS_TYPE":0,"CLASSIFICATION_TYPE":"U","NORAD_CAT_ID":67774,"ELEMENT_SET_NO":999,"REV_AT_EPOCH":433,"BSTAR":0.0010936,"MEAN_MOTION_DOT":0.00038942,"MEAN_MOTION_DDOT":0},{"OBJECT_NAME":"KUIPER-00208","OBJECT_ID":"2026-030M","EPOCH":"2026-03-04T18:44:22.727040","MEAN_MOTION":15.32539941,"ECCENTRICITY":0.0013762,"INCLINATION":51.8823,"RA_OF_ASC_NODE":243.1651,"ARG_OF_PERICENTER":44.5755,"MEAN_ANOMALY":315.6334,"EPHEMERIS_TYPE":0,"CLASSIFICATION_TYPE":"U","NORAD_CAT_ID":67775,"ELEMENT_SET_NO":999,"REV_AT_EPOCH":433,"BSTAR":-0.00043177,"MEAN_MOTION_DOT":-0.00014164,"MEAN_MOTION_DDOT":0},{"OBJECT_NAME":"KUIPER-00209","OBJECT_ID":"2026-030N","EPOCH":"2026-03-04T18:50:57.593184","MEAN_MOTION":15.31011124,"ECCENTRICITY":0.0012577,"INCLINATION":51.8813,"RA_OF_ASC_NODE":243.1923,"ARG_OF_PERICENTER":51.8736,"MEAN_ANOMALY":308.338,"EPHEMERIS_TYPE":0,"CLASSIFICATION_TYPE":"U","NORAD_CAT_ID":67776,"ELEMENT_SET_NO":999,"REV_AT_EPOCH":433,"BSTAR":-0.001352,"MEAN_MOTION_DOT":-0.00041353,"MEAN_MOTION_DDOT":0},{"OBJECT_NAME":"KUIPER-00213","OBJECT_ID":"2026-030P","EPOCH":"2026-03-04T18:45:26.742528","MEAN_MOTION":15.32539947,"ECCENTRICITY":0.0014984,"INCLINATION":51.8795,"RA_OF_ASC_NODE":243.1616,"ARG_OF_PERICENTER":50.536,"MEAN_ANOMALY":309.6948,"EPHEMERIS_TYPE":0,"CLASSIFICATION_TYPE":"U","NORAD_CAT_ID":67777,"ELEMENT_SET_NO":999,"REV_AT_EPOCH":433,"BSTAR":0.00109,"MEAN_MOTION_DOT":0.00034661,"MEAN_MOTION_DDOT":0},{"OBJECT_NAME":"KUIPER-00214","OBJECT_ID":"2026-030Q","EPOCH":"2026-03-04T17:41:47.203296","MEAN_MOTION":15.36570505,"ECCENTRICITY":8.17e-5,"INCLINATION":51.8839,"RA_OF_ASC_NODE":242.8856,"ARG_OF_PERICENTER":207.5643,"MEAN_ANOMALY":152.53,"EPHEMERIS_TYPE":0,"CLASSIFICATION_TYPE":"U","NORAD_CAT_ID":67778,"ELEMENT_SET_NO":999,"REV_AT_EPOCH":433,"BSTAR":0.00080304,"MEAN_MOTION_DOT":0.00028836,"MEAN_MOTION_DDOT":0},{"OBJECT_NAME":"KUIPER-00215","OBJECT_ID":"2026-030R","EPOCH":"2026-03-04T18:24:33.689376","MEAN_MOTION":15.34241139,"ECCENTRICITY":0.0009989,"INCLINATION":51.884,"RA_OF_ASC_NODE":243.0777,"ARG_OF_PERICENTER":47.0687,"MEAN_ANOMALY":313.1135,"EPHEMERIS_TYPE":0,"CLASSIFICATION_TYPE":"U","NORAD_CAT_ID":67779,"ELEMENT_SET_NO":999,"REV_AT_EPOCH":433,"BSTAR":0.0013287,"MEAN_MOTION_DOT":0.00044658,"MEAN_MOTION_DDOT":0},{"OBJECT_NAME":"KUIPER-00218","OBJECT_ID":"2026-030S","EPOCH":"2026-03-04T18:11:12.988608","MEAN_MOTION":15.3495555,"ECCENTRICITY":0.0006594,"INCLINATION":51.8834,"RA_OF_ASC_NODE":243.0161,"ARG_OF_PERICENTER":37.79,"MEAN_ANOMALY":322.3547,"EPHEMERIS_TYPE":0,"CLASSIFICATION_TYPE":"U","NORAD_CAT_ID":67780,"ELEMENT_SET_NO":999,"REV_AT_EPOCH":433,"BSTAR":0.0011281,"MEAN_MOTION_DOT":0.00038673,"MEAN_MOTION_DDOT":0},{"OBJECT_NAME":"KUIPER-00220","OBJECT_ID":"2026-030T","EPOCH":"2026-03-04T18:19:45.173856","MEAN_MOTION":15.34535049,"ECCENTRICITY":0.0008347,"INCLINATION":51.8808,"RA_OF_ASC_NODE":243.0482,"ARG_OF_PERICENTER":42.9948,"MEAN_ANOMALY":317.1689,"EPHEMERIS_TYPE":0,"CLASSIFICATION_TYPE":"U","NORAD_CAT_ID":67781,"ELEMENT_SET_NO":999,"REV_AT_EPOCH":433,"BSTAR":0.0012556,"MEAN_MOTION_DOT":0.00042549,"MEAN_MOTION_DDOT":0},{"OBJECT_NAME":"KUIPER-00222","OBJECT_ID":"2026-030U","EPOCH":"2026-03-04T18:50:35.231136","MEAN_MOTION":15.32405143,"ECCENTRICITY":0.0017177,"INCLINATION":51.8795,"RA_OF_ASC_NODE":243.1836,"ARG_OF_PERICENTER":47.2129,"MEAN_ANOMALY":313.0297,"EPHEMERIS_TYPE":0,"CLASSIFICATION_TYPE":"U","NORAD_CAT_ID":67782,"ELEMENT_SET_NO":999,"REV_AT_EPOCH":433,"BSTAR":0.00207,"MEAN_MOTION_DOT":0.00066227,"MEAN_MOTION_DDOT":0},{"OBJECT_NAME":"KUIPER-00223","OBJECT_ID":"2026-030V","EPOCH":"2026-03-04T18:29:11.913792","MEAN_MOTION":15.34022971,"ECCENTRICITY":0.0012207,"INCLINATION":51.8821,"RA_OF_ASC_NODE":243.0949,"ARG_OF_PERICENTER":46.6825,"MEAN_ANOMALY":313.5176,"EPHEMERIS_TYPE":0,"CLASSIFICATION_TYPE":"U","NORAD_CAT_ID":67783,"ELEMENT_SET_NO":999,"REV_AT_EPOCH":433,"BSTAR":0.00083012,"MEAN_MOTION_DOT":0.00027522,"MEAN_MOTION_DDOT":0},{"OBJECT_NAME":"KUIPER-00225","OBJECT_ID":"2026-030W","EPOCH":"2026-03-04T17:58:46.118496","MEAN_MOTION":15.3567212,"ECCENTRICITY":0.0004075,"INCLINATION":51.881,"RA_OF_ASC_NODE":242.9549,"ARG_OF_PERICENTER":26.2514,"MEAN_ANOMALY":333.8678,"EPHEMERIS_TYPE":0,"CLASSIFICATION_TYPE":"U","NORAD_CAT_ID":67784,"ELEMENT_SET_NO":999,"REV_AT_EPOCH":433,"BSTAR":0.00083095,"MEAN_MOTION_DOT":0.00029,"MEAN_MOTION_DDOT":0},{"OBJECT_NAME":"KUIPER-00226","OBJECT_ID":"2026-030X","EPOCH":"2026-03-04T19:06:04.870080","MEAN_MOTION":15.31321727,"ECCENTRICITY":0.0019601,"INCLINATION":51.8804,"RA_OF_ASC_NODE":243.2539,"ARG_OF_PERICENTER":59.2619,"MEAN_ANOMALY":301.0293,"EPHEMERIS_TYPE":0,"CLASSIFICATION_TYPE":"U","NORAD_CAT_ID":67785,"ELEMENT_SET_NO":999,"REV_AT_EPOCH":433,"BSTAR":0.0014305,"MEAN_MOTION_DOT":0.00044051,"MEAN_MOTION_DDOT":0},{"OBJECT_NAME":"KUIPER-00259","OBJECT_ID":"2026-030Y","EPOCH":"2026-03-04T18:14:05.186400","MEAN_MOTION":15.34853547,"ECCENTRICITY":0.0008286,"INCLINATION":51.8809,"RA_OF_ASC_NODE":243.0225,"ARG_OF_PERICENTER":36.0798,"MEAN_ANOMALY":324.0746,"EPHEMERIS_TYPE":0,"CLASSIFICATION_TYPE":"U","NORAD_CAT_ID":67786,"ELEMENT_SET_NO":999,"REV_AT_EPOCH":433,"BSTAR":0.0010962,"MEAN_MOTION_DOT":0.00037453,"MEAN_MOTION_DDOT":0},{"OBJECT_NAME":"KUIPER-00260","OBJECT_ID":"2026-030Z","EPOCH":"2026-03-04T19:21:45.339264","MEAN_MOTION":15.36244313,"ECCENTRICITY":0.0001012,"INCLINATION":51.8797,"RA_OF_ASC_NODE":242.5929,"ARG_OF_PERICENTER":47.8828,"MEAN_ANOMALY":312.2244,"EPHEMERIS_TYPE":0,"CLASSIFICATION_TYPE":"U","NORAD_CAT_ID":67787,"ELEMENT_SET_NO":999,"REV_AT_EPOCH":425,"BSTAR":0.0011179,"MEAN_MOTION_DOT":0.0003993,"MEAN_MOTION_DDOT":0},{"OBJECT_NAME":"KUIPER-00262","OBJECT_ID":"2026-030AA","EPOCH":"2026-03-04T17:43:12.487008","MEAN_MOTION":15.36555457,"ECCENTRICITY":3.76e-5,"INCLINATION":51.8808,"RA_OF_ASC_NODE":242.8868,"ARG_OF_PERICENTER":111.3871,"MEAN_ANOMALY":248.7156,"EPHEMERIS_TYPE":0,"CLASSIFICATION_TYPE":"U","NORAD_CAT_ID":67788,"ELEMENT_SET_NO":999,"REV_AT_EPOCH":433,"BSTAR":0.0010922,"MEAN_MOTION_DOT":0.00039396,"MEAN_MOTION_DDOT":0},{"OBJECT_NAME":"KUIPER-00266","OBJECT_ID":"2026-030AB","EPOCH":"2026-03-04T17:38:31.958304","MEAN_MOTION":15.30936728,"ECCENTRICITY":0.0022799,"INCLINATION":51.8805,"RA_OF_ASC_NODE":243.5921,"ARG_OF_PERICENTER":58.713,"MEAN_ANOMALY":301.6082,"EPHEMERIS_TYPE":0,"CLASSIFICATION_TYPE":"U","NORAD_CAT_ID":67789,"ELEMENT_SET_NO":999,"REV_AT_EPOCH":432,"BSTAR":0.00064658,"MEAN_MOTION_DOT":0.00019442,"MEAN_MOTION_DDOT":0}]
